[{"OBJECT_NAME":"TIANMU-1 08","OBJECT_ID":"2023-101B","EPOCH":"2026-03-07T00:03:25.475616","MEAN_MOTION":15.29204229,"ECCENTRICITY":0.00063808,"INCLINATION":97.2717,"RA_OF_ASC_NODE":118.7901,"ARG_OF_PERICENTER":134.2174,"MEAN_ANOMALY":225.9592,"EPHEMERIS_TYPE":0,"CLASSIFICATION_TYPE":"U","NORAD_CAT_ID":57400,"ELEMENT_SET_NO":999,"REV_AT_EPOCH":14602,"BSTAR":1.4774513e-5,"MEAN_MOTION_DOT":3.46e-6,"MEAN_MOTION_DDOT":0},{"OBJECT_NAME":"STARLINK-36550","OBJECT_ID":"2026-012C","EPOCH":"2026-03-09T23:35:57.401664","MEAN_MOTION":15.27600352,"ECCENTRICITY":0.00011637,"INCLINATION":42.9946,"RA_OF_ASC_NODE":313.02,"ARG_OF_PERICENTER":176.5131,"MEAN_ANOMALY":183.5729,"EPHEMERIS_TYPE":0,"CLASSIFICATION_TYPE":"U","NORAD_CAT_ID":67495,"ELEMENT_SET_NO":999,"REV_AT_EPOCH":780,"BSTAR":0.0012652762,"MEAN_MOTION_DOT":0.00034741,"MEAN_MOTION_DDOT":0}]
